{
  "type": "FeatureCollection",
  "features": [
    {
      "type": "Feature",
      "properties": {
        "norad_id": 27954,
        "name": "GALAXY 13 (HORIZONS-1)",
        "group": "intelsat",
        "lat": 0.0532090692452822,
        "lon": 88.33208410841489,
        "alt_km": 35795.394180745076,
        "timestamp": "2025-12-27T09:28:56.134623+00:00",
        "meta_object_name": "GALAXY 13 (HORIZONS-1)",
        "meta_object_id": "2003-044A",
        "meta_epoch": "2025-12-27T02:00:56.333376",
        "meta_mean_motion": 1.00272762,
        "meta_eccentricity": 0.0002288,
        "meta_inclination": 0.974,
        "meta_ra_of_asc_node": 86.2856,
        "meta_arg_of_pericenter": 188.2728,
        "meta_mean_anomaly": 61.471,
        "meta_ephemeris_type": 0,
        "meta_classification_type": "U",
        "meta_norad_cat_id": 27954,
        "meta_element_set_no": 999,
        "meta_rev_at_epoch": 4484,
        "meta_bstar": 0,
        "meta_mean_motion_dot": 1.55e-06,
        "meta_mean_motion_ddot": 0,
        "tle_line1": "1 27954U 03044A   25361.08398534  .00000155  00000+0  00000+0 0  9994",
        "tle_line2": "2 27954   0.9740  86.2856 0002288 188.2728  61.4710  1.00272762 44846"
      },
      "geometry": {
        "type": "Point",
        "coordinates": [
          88.33208410841489,
          0.0532090692452822
        ]
      }
    },
    {
      "type": "Feature",
      "properties": {
        "norad_id": 28358,
        "name": "INTELSAT 10-02",
        "group": "intelsat",
        "lat": -0.011744271576733564,
        "lon": -122.62068849881935,
        "alt_km": 35784.26815065732,
        "timestamp": "2025-12-27T09:28:56.134635+00:00",
        "meta_object_name": "INTELSAT 10-02",
        "meta_object_id": "2004-022A",
        "meta_epoch": "2025-12-27T02:43:29.755776",
        "meta_mean_motion": 1.00270144,
        "meta_eccentricity": 0.0001271,
        "meta_inclination": 0.0165,
        "meta_ra_of_asc_node": 51.4001,
        "meta_arg_of_pericenter": 251.2068,
        "meta_mean_anomaly": 193.1572,
        "meta_ephemeris_type": 0,
        "meta_classification_type": "U",
        "meta_norad_cat_id": 28358,
        "meta_element_set_no": 999,
        "meta_rev_at_epoch": 7883,
        "meta_bstar": 0,
        "meta_mean_motion_dot": 1.1e-07,
        "meta_mean_motion_ddot": 0,
        "tle_line1": "1 28358U 04022A   25361.11353884  .00000011  00000+0  00000+0 0  9994",
        "tle_line2": "2 28358   0.0165  51.4001 0001271 251.2068 193.1572  1.00270144 78839"
      },
      "geometry": {
        "type": "Point",
        "coordinates": [
          -122.62068849881935,
          -0.011744271576733564
        ]
      }
    },
    {
      "type": "Feature",
      "properties": {
        "norad_id": 28626,
        "name": "XM-3 (RHYTHM)",
        "group": "intelsat",
        "lat": -0.09232159683417647,
        "lon": -77.05672649102402,
        "alt_km": 36157.26822541371,
        "timestamp": "2025-12-27T09:28:56.134647+00:00",
        "meta_object_name": "XM-3 (RHYTHM)",
        "meta_object_id": "2005-008A",
        "meta_epoch": "2025-12-27T02:56:50.978400",
        "meta_mean_motion": 0.98950674,
        "meta_eccentricity": 0.0002297,
        "meta_inclination": 0.2097,
        "meta_ra_of_asc_node": 82.3398,
        "meta_arg_of_pericenter": 271.0604,
        "meta_mean_anomaly": 192.5803,
        "meta_ephemeris_type": 0,
        "meta_classification_type": "U",
        "meta_norad_cat_id": 28626,
        "meta_element_set_no": 999,
        "meta_rev_at_epoch": 4089,
        "meta_bstar": 0,
        "meta_mean_motion_dot": 7.4e-07,
        "meta_mean_motion_ddot": 0,
        "tle_line1": "1 28626U 05008A   25361.12281225  .00000074  00000+0  00000+0 0  9996",
        "tle_line2": "2 28626   0.2097  82.3398 0002297 271.0604 192.5803  0.98950674 40894"
      },
      "geometry": {
        "type": "Point",
        "coordinates": [
          -77.05672649102402,
          -0.09232159683417647
        ]
      }
    },
    {
      "type": "Feature",
      "properties": {
        "norad_id": 28659,
        "name": "DIRECTV 8",
        "group": "intelsat",
        "lat": 0.027513105442060627,
        "lon": 119.30482501404067,
        "alt_km": 35798.90782932552,
        "timestamp": "2025-12-27T09:28:56.134659+00:00",
        "meta_object_name": "DIRECTV 8",
        "meta_object_id": "2005-019A",
        "meta_epoch": "2025-12-26T09:14:16.477152",
        "meta_mean_motion": 1.00271765,
        "meta_eccentricity": 0.0003134,
        "meta_inclination": 0.0135,
        "meta_ra_of_asc_node": 57.3028,
        "meta_arg_of_pericenter": 228.1398,
        "meta_mean_anomaly": 189.2168,
        "meta_ephemeris_type": 0,
        "meta_classification_type": "U",
        "meta_norad_cat_id": 28659,
        "meta_element_set_no": 999,
        "meta_rev_at_epoch": 7534,
        "meta_bstar": 0,
        "meta_mean_motion_dot": 2.3e-07,
        "meta_mean_motion_ddot": 0,
        "tle_line1": "1 28659U 05019A   25360.38491293  .00000023  00000+0  00000+0 0  9993",
        "tle_line2": "2 28659   0.0135  57.3028 0003134 228.1398 189.2168  1.00271765 75343"
      },
      "geometry": {
        "type": "Point",
        "coordinates": [
          119.30482501404067,
          0.027513105442060627
        ]
      }
    },
    {
      "type": "Feature",
      "properties": {
        "norad_id": 28702,
        "name": "GALAXY 28 (G-28)",
        "group": "intelsat",
        "lat": 2.7976869550245342,
        "lon": 158.36473645216253,
        "alt_km": 35692.73162630945,
        "timestamp": "2025-12-27T09:28:56.134682+00:00",
        "meta_object_name": "GALAXY 28 (G-28)",
        "meta_object_id": "2005-022A",
        "meta_epoch": "2025-12-27T04:19:27.648768",
        "meta_mean_motion": 1.00599471,
        "meta_eccentricity": 0.0003418,
        "meta_inclination": 2.8568,
        "meta_ra_of_asc_node": 81.1139,
        "meta_arg_of_pericenter": 161.5266,
        "meta_mean_anomaly": 197.9493,
        "meta_ephemeris_type": 0,
        "meta_classification_type": "U",
        "meta_norad_cat_id": 28702,
        "meta_element_set_no": 999,
        "meta_rev_at_epoch": 5024,
        "meta_bstar": 0,
        "meta_mean_motion_dot": -2.35e-06,
        "meta_mean_motion_ddot": 0,
        "tle_line1": "1 28702U 05022A   25361.18018112 -.00000235  00000+0  00000+0 0  9996",
        "tle_line2": "2 28702   2.8568  81.1139 0003418 161.5266 197.9493  1.00599471 50245"
      },
      "geometry": {
        "type": "Point",
        "coordinates": [
          158.36473645216253,
          2.7976869550245342
        ]
      }
    },
    {
      "type": "Feature",
      "properties": {
        "norad_id": 29236,
        "name": "GALAXY 16 (G-16)",
        "group": "intelsat",
        "lat": -0.011506969400352084,
        "lon": 139.3220890967441,
        "alt_km": 35795.2243223572,
        "timestamp": "2025-12-27T09:28:56.134706+00:00",
        "meta_object_name": "GALAXY 16 (G-16)",
        "meta_object_id": "2006-023A",
        "meta_epoch": "2025-12-27T04:20:38.793120",
        "meta_mean_motion": 1.00271184,
        "meta_eccentricity": 0.0002754,
        "meta_inclination": 0.0374,
        "meta_ra_of_asc_node": 206.2569,
        "meta_arg_of_pericenter": 73.3748,
        "meta_mean_anomaly": 142.4352,
        "meta_ephemeris_type": 0,
        "meta_classification_type": "U",
        "meta_norad_cat_id": 29236,
        "meta_element_set_no": 999,
        "meta_rev_at_epoch": 7124,
        "meta_bstar": 0,
        "meta_mean_motion_dot": -1.04e-06,
        "meta_mean_motion_ddot": 0,
        "tle_line1": "1 29236U 06023A   25361.18100455 -.00000104  00000+0  00000+0 0  9998",
        "tle_line2": "2 29236   0.0374 206.2569 0002754  73.3748 142.4352  1.00271184 71247"
      },
      "geometry": {
        "type": "Point",
        "coordinates": [
          139.3220890967441,
          -0.011506969400352084
        ]
      }
    },
    {
      "type": "Feature",
      "properties": {
        "norad_id": 29494,
        "name": "DIRECTV 9S",
        "group": "intelsat",
        "lat": 1.6151483360712868,
        "lon": 137.11286179966396,
        "alt_km": 35796.70068699264,
        "timestamp": "2025-12-27T09:28:56.134720+00:00",
        "meta_object_name": "DIRECTV 9S",
        "meta_object_id": "2006-043A",
        "meta_epoch": "2025-12-27T04:37:38.707104",
        "meta_mean_motion": 1.00271328,
        "meta_eccentricity": 0.0003126,
        "meta_inclination": 1.9755,
        "meta_ra_of_asc_node": 83.0558,
        "meta_arg_of_pericenter": 198.0561,
        "meta_mean_anomaly": 143.0226,
        "meta_ephemeris_type": 0,
        "meta_classification_type": "U",
        "meta_norad_cat_id": 29494,
        "meta_element_set_no": 999,
        "meta_rev_at_epoch": 4965,
        "meta_bstar": 0,
        "meta_mean_motion_dot": -9.2e-07,
        "meta_mean_motion_ddot": 0,
        "tle_line1": "1 29494U 06043A   25361.19280911 -.00000092  00000+0  00000+0 0  9999",
        "tle_line2": "2 29494   1.9755  83.0558 0003126 198.0561 143.0226  1.00271328 49654"
      },
      "geometry": {
        "type": "Point",
        "coordinates": [
          137.11286179966396,
          1.6151483360712868
        ]
      }
    }
  ]
}